NORAD_CAT_ID,OBJECT_NAME,OBJECT_TYPE,EPOCH,MEAN_MOTION,ECCENTRICITY,INCLINATION,RA_OF_ASC_NODE,ARG_OF_PERICENTER,MEAN_ANOMALY,BSTAR,MEAN_MOTION_DOT,MEAN_MOTION_DDOT,TLE_LINE0,TLE_LINE1,TLE_LINE2,SEMIMAJOR_AXIS,PERIOD,APOGEE,PERIGEE,DECAYED
53978.0,STARLINK-5148,PAYLOAD,2024-01-03 22:42:18,15.08839094,0.0001329,53.2153,191.2397,94.0209,266.0935,2.1721e-05,5.8e-07,0.0,0 STARLINK-5148,1 53978U 22125Q   24003.94604778  .00000058  00000-0  21721-4 0  9998,2 53978  53.2153 191.2397 0001329  94.0209 266.0935 15.08839094 69333,6917.883,95.438,540.668,538.829,0.0
53978.0,STARLINK-5148,PAYLOAD,2024-01-04 20:57:42,15.08835873,0.0001324,53.2156,187.0758,92.2389,267.8755,3.3917e-05,2.52e-06,0.0,0 STARLINK-5148,1 53978U 22125Q   24004.87341179  .00000252  00000-0  33917-4 0  9990,2 53978  53.2156 187.0758 0001324  92.2389 267.8755 15.08835873 69402,6917.893,95.438,540.674,538.842,0.0
53978.0,STARLINK-5148,PAYLOAD,2024-01-05 19:13:07,15.08831829,0.0001381,53.2159,182.913,83.1555,276.9594,1.2293e-07,-2.86e-06,0.0,0 STARLINK-5148,1 53978U 22125Q   24005.80078072 -.00000286  00000-0  12293-6 0  9997,2 53978  53.2159 182.9130 0001381  83.1555 276.9594 15.08831829 69612,6917.905,95.438,540.726,538.815,0.0
53978.0,STARLINK-5148,PAYLOAD,2024-01-06 11:06:58,15.08833943,0.0001484,53.2161,179.9393,77.2749,282.8409,4.0912e-05,3.63e-06,0.0,0 STARLINK-5148,1 53978U 22125Q   24006.46318179  .00000363  00000-0  40912-4 0  9997,2 53978  53.2161 179.9393 0001484  77.2749 282.8409 15.08833943 69648,6917.899,95.438,540.791,538.737,0.0
53978.0,STARLINK-5148,PAYLOAD,2024-01-06 19:03:54,15.08837345,0.0001472,53.2161,178.4531,77.0059,283.1097,7.2927e-05,8.73e-06,0.0,0 STARLINK-5148,1 53978U 22125Q   24006.79437970  .00000873  00000-0  72927-4 0  9991,2 53978  53.2161 178.4531 0001472  77.0059 283.1097 15.08837345 69697,6917.889,95.438,540.772,538.735,0.0
53978.0,STARLINK-5148,PAYLOAD,2024-01-07 10:57:45,15.08841277,0.0001403,53.2162,175.479,83.6404,276.4748,0.00012316,1.673e-05,0.0,0 STARLINK-5148,1 53978U 22125Q   24007.45677624  .00001673  00000-0  12316-3 0  9991,2 53978  53.2162 175.4790 0001403  83.6404 276.4748 15.08841277 69791,6917.876,95.437,540.712,538.771,0.0
53978.0,STARLINK-5148,PAYLOAD,2024-01-07 17:19:17,15.08847047,0.0001403,53.2159,174.2901,82.2611,277.854,0.00017021,2.422e-05,0.0,0 STARLINK-5148,1 53978U 22125Q   24007.72173148  .00002422  00000-0  17021-3 0  9994,2 53978  53.2159 174.2901 0001403  82.2611 277.8540 15.08847047 69902,6917.859,95.437,540.694,538.753,0.0
53978.0,STARLINK-5148,PAYLOAD,2024-01-08 13:59:18,15.08842756,0.0001416,53.2161,170.4249,76.696,283.419,5.1842e-05,5.37e-06,0.0,0 STARLINK-5148,1 53978U 22125Q   24008.58285627  .00000537  00000-0  51842-4 0  9990,2 53978  53.2161 170.4249 0001416  76.6960 283.4190 15.08842756 69968,6917.872,95.437,540.717,538.757,0.0
53978.0,STARLINK-5148,PAYLOAD,2024-01-08 17:10:04,15.08842662,0.0001308,53.2159,169.83,82.8315,277.2826,4.9558e-05,5.01e-06,0.0,0 STARLINK-5148,1 53978U 22125Q   24008.71533560  .00000501  00000-0  49558-4 0  9999,2 53978  53.2159 169.8300 0001308  82.8315 277.2826 15.08842662 70053,6917.872,95.437,540.642,538.832,0.0
53978.0,STARLINK-5148,PAYLOAD,2024-01-09 13:50:05,15.08845183,0.0001347,53.2155,165.9661,69.6366,290.477,9.4149e-06,-1.38e-06,0.0,0 STARLINK-5148,1 53978U 22125Q   24009.57645345 -.00000138  00000-0  94149-5 0  9993,2 53978  53.2155 165.9661 0001347  69.6366 290.4770 15.08845183 70111,6917.865,95.437,540.661,538.798,0.0
53978.0,STARLINK-5148,PAYLOAD,2024-01-09 17:00:51,15.08847269,0.0001302,53.2157,165.3704,75.4052,284.7084,1.402e-05,-6.5e-07,0.0,0 STARLINK-5148,1 53978U 22125Q   24009.70893098 -.00000065  00000-0  14020-4 0  9996,2 53978  53.2157 165.3704 0001302  75.4052 284.7084 15.08847269 70136,6917.858,95.437,540.624,538.822,0.0
53978.0,STARLINK-5148,PAYLOAD,2024-01-10 10:30:06,15.08837999,0.000128,53.2159,162.0979,83.8683,276.2455,2.1469e-05,5.4e-07,0.0,0 STARLINK-5148,1 53978U 22125Q   24010.43757497  .00000054  00000-0  21469-4 0  9992,2 53978  53.2159 162.0979 0001280  83.8683 276.2455 15.08837999 70311,6917.887,95.438,540.637,538.866,0.0
53978.0,STARLINK-5148,PAYLOAD,2024-01-11 15:07:02,15.08841252,0.0001288,53.2159,156.7453,84.8064,275.3075,4.5734e-05,4.4e-06,0.0,0 STARLINK-5148,1 53978U 22125Q   24011.62989467  .00000440  00000-0  45734-4 0  9998,2 53978  53.2159 156.7453 0001288  84.8064 275.3075 15.08841252 70427,6917.877,95.437,540.633,538.851,0.0
53978.0,STARLINK-5148,PAYLOAD,2024-01-11 16:42:25,15.08842976,0.0001298,53.216,156.4477,86.7321,273.3819,6.0049e-05,6.68e-06,0.0,0 STARLINK-5148,1 53978U 22125Q   24011.69613302  .00000668  00000-0  60049-4 0  9995,2 53978  53.2160 156.4477 0001298  86.7321 273.3819 15.08842976 70507,6917.871,95.437,540.634,538.838,0.0
53978.0,STARLINK-5148,PAYLOAD,2024-01-12 10:11:41,15.0883213,0.0001417,53.2162,153.1766,96.9527,263.1626,3.8424e-05,3.24e-06,0.0,0 STARLINK-5148,1 53978U 22125Q   24012.42478243  .00000324  00000-0  38424-4 0  9991,2 53978  53.2162 153.1766 0001417  96.9527 263.1626 15.08832130 70614,6917.904,95.438,540.75,538.789,0.0
53978.0,STARLINK-5148,PAYLOAD,2024-01-12 13:22:27,15.08834857,0.0001305,53.216,152.5814,95.6094,264.5046,3.2259e-05,2.25e-06,0.0,0 STARLINK-5148,1 53978U 22125Q   24012.55726174  .00000225  00000-0  32259-4 0  9994,2 53978  53.2160 152.5814 0001305  95.6094 264.5046 15.08834857 70563,6917.896,95.438,540.664,538.858,0.0
53978.0,STARLINK-5148,PAYLOAD,2024-01-12 16:33:13,15.08837823,0.0001267,53.2162,151.9873,87.9767,272.137,7.9477e-05,9.77e-06,0.0,0 STARLINK-5148,1 53978U 22125Q   24012.68973886  .00000977  00000-0  79477-4 0  9999,2 53978  53.2162 151.9873 0001267  87.9767 272.1370 15.08837823 70584,6917.887,95.438,540.629,538.876,0.0
53978.0,STARLINK-5148,PAYLOAD,2024-01-13 14:48:37,15.08837774,0.000129,53.2161,147.8245,84.0728,276.0411,1.795e-05,-2e-08,0.0,0 STARLINK-5148,1 53978U 22125Q   24013.61710488 -.00000002  00000-0  17950-4 0  9998,2 53978  53.2161 147.8245 0001290  84.0728 276.0411 15.08837774 70721,6917.887,95.438,540.645,538.86,0.0
53978.0,STARLINK-5148,PAYLOAD,2024-01-13 16:24:00,15.08840121,0.0001302,53.2164,147.527,81.4684,278.6456,2.9404e-05,1.8e-06,0.0,0 STARLINK-5148,1 53978U 22125Q   24013.68334339  .00000180  00000-0  29404-4 0  9995,2 53978  53.2164 147.5270 0001302  81.4684 278.6456 15.08840121 70801,6917.88,95.438,540.646,538.844,0.0
53978.0,STARLINK-5148,PAYLOAD,2024-01-14 14:39:24,15.08849399,0.0001321,53.2155,143.3649,78.7761,281.3379,0.00014555,2.03e-05,0.0,0 STARLINK-5148,1 53978U 22125Q   24014.61069560  .00002030  00000-0  14555-3 0  9996,2 53978  53.2155 143.3649 0001321  78.7761 281.3379 15.08849399 70879,6917.852,95.437,540.631,538.803,0.0
53978.0,STARLINK-5148,PAYLOAD,2024-01-14 16:14:46,15.0885337,0.0001344,53.2157,143.0672,78.3708,281.7435,0.00018368,2.638e-05,0.0,0 STARLINK-5148,1 53978U 22125Q   24014.67693221  .00002638  00000-0  18368-3 0  9999,2 53978  53.2157 143.0672 0001344  78.3708 281.7435 15.08853370 70956,6917.84,95.437,540.634,538.775,0.0
53978.0,STARLINK-5148,PAYLOAD,2024-01-15 11:19:25,15.08837354,0.0001239,53.2161,139.4989,87.4397,272.6737,5.3512e-05,5.64e-06,0.0,0 STARLINK-5148,1 53978U 22125Q   24015.47182622  .00000564  00000-0  53512-4 0  9993,2 53978  53.2161 139.4989 0001239  87.4397 272.6737 15.08837354 71071,6917.888,95.438,540.611,538.896,0.0
53978.0,STARLINK-5148,PAYLOAD,2024-01-15 14:30:11,15.08840361,0.0001364,53.2161,138.9048,71.9547,288.1593,8.8602e-05,1.122e-05,0.0,0 STARLINK-5148,1 53978U 22125Q   24015.60430493  .00001122  00000-0  88602-4 0  9999,2 53978  53.2161 138.9048 0001364  71.9547 288.1593 15.08840361 71024,6917.879,95.438,540.688,538.801,0.0
53978.0,STARLINK-5148,PAYLOAD,2024-01-16 14:20:58,15.08846243,0.0001494,53.2156,134.4464,62.6068,297.5076,6.796e-05,7.94e-06,0.0,0 STARLINK-5148,1 53978U 22125Q   24016.59790261  .00000794  00000-0  67960-4 0  9998,2 53978  53.2156 134.4464 0001494  62.6068 297.5076 15.08846243 71171,6917.861,95.437,540.76,538.693,0.0
53978.0,STARLINK-5148,PAYLOAD,2024-01-17 11:01:00,15.08837886,0.0001418,53.2147,130.5791,80.1305,279.9847,4.298e-05,3.96e-06,0.0,0 STARLINK-5148,1 53978U 22125Q   24017.45902845  .00000396  00000-0  42980-4 0  9990,2 53978  53.2147 130.5791 0001418  80.1305 279.9847 15.08837886 71371,6917.887,95.438,540.733,538.771,0.0
53978.0,STARLINK-5148,PAYLOAD,2024-01-17 14:11:46,15.08841609,0.000133,53.2159,129.9823,95.4808,264.6336,5.4981e-05,5.87e-06,0.0,0 STARLINK-5148,1 53978U 22125Q   24017.59150472  .00000587  00000-0  54981-4 0  9992,2 53978  53.2159 129.9823 0001330  95.4808 264.6336 15.08841609 71329,6917.875,95.437,540.661,538.82,0.0
53978.0,STARLINK-5148,PAYLOAD,2024-01-18 12:27:10,15.08842467,0.0001369,53.2169,125.8178,95.8607,264.2541,3.1225e-05,2.09e-06,0.0,0 STARLINK-5148,1 53978U 22125Q   24018.51886752  .00000209  00000-0  31225-4 0  9999,2 53978  53.2169 125.8178 0001369  95.8607 264.2541 15.08842467 71531,6917.873,95.437,540.685,538.791,0.0
53978.0,STARLINK-5148,PAYLOAD,2024-01-19 12:17:56,15.08846283,0.0001338,53.2165,121.3583,87.1769,272.9377,0.00011034,1.469e-05,0.0,0 STARLINK-5148,1 53978U 22125Q   24019.51246509  .00001469  00000-0  11034-3 0  9994,2 53978  53.2165 121.3583 0001338  87.1769 272.9377 15.08846283 71619,6917.861,95.437,540.652,538.801,0.0
53978.0,STARLINK-5148,PAYLOAD,2024-01-19 17:04:05,15.08854889,0.000141,53.2163,120.4663,84.197,275.9183,0.00021482,3.134e-05,0.0,0 STARLINK-5148,1 53978U 22125Q   24019.71117887  .00003134  00000-0  21482-3 0  9991,2 53978  53.2163 120.4663 0001410  84.1970 275.9183 15.08854889 71718,6917.835,95.437,540.675,538.724,0.0
53978.0,STARLINK-5148,PAYLOAD,2024-01-20 12:08:44,15.08840842,0.0001624,53.2162,116.896,100.33,259.7876,5.2823e-06,-2.04e-06,0.0,0 STARLINK-5148,1 53978U 22125Q   24020.50606602 -.00000204  00000-0  52823-5 0  9999,2 53978  53.2162 116.8960 0001624 100.3300 259.7876 15.08840842 71837,6917.878,95.438,540.866,538.619,0.0
